{"type": "FeatureCollection", "features": [{"type": "Feature", "geometry": {"geodesic": false, "type": "Point", "coordinates": [75.63594605041763, 35.52194653264562]}, "id": "0", "properties": {"classification": 1, "latitude": 35.52194653264562, "longitude": 75.63594605041763, "district": "Shigar"}}, {"type": "Feature", "geometry": {"geodesic": false, "type": "Point", "coordinates": [75.65642763889555, 35.5090107925543]}, "id": "1", "properties": {"classification": 1, "latitude": 35.5090107925543, "longitude": 75.65642763889555, "district": "Shigar"}}, {"type": "Feature", "geometry": {"geodesic": false, "type": "Point", "coordinates": [75.44972529201965, 35.673671984133414]}, "id": "2", "properties": {"classification": 1, "latitude": 35.673671984133414, "longitude": 75.44972529201965, "district": "Shigar"}}, {"type": "Feature", "geometry": {"geodesic": false, "type": "Point", "coordinates": [75.56237402864824, 35.54458407780544]}, "id": "3", "properties": {"classification": 1, "latitude": 35.54458407780544, "longitude": 75.56237402864824, "district": "Shigar"}}, {"type": "Feature", "geometry": {"geodesic": false, "type": "Point", "coordinates": [75.65211572553177, 35.36213624360076]}, "id": "4", "properties": {"classification": 1, "latitude": 35.36213624360076, "longitude": 75.65211572553177, "district": "Shigar"}}, {"type": "Feature", "geometry": {"geodesic": false, "type": "Point", "coordinates": [75.64995976884988, 35.36213624360076]}, "id": "5", "properties": {"classification": 1, "latitude": 35.36213624360076, "longitude": 75.64995976884988, "district": "Shigar"}}, {"type": "Feature", "geometry": {"geodesic": false, "type": "Point", "coordinates": [75.73134713359111, 35.411453752698925]}, "id": "6", "properties": {"classification": 1, "latitude": 35.411453752698925, "longitude": 75.73134713359111, "district": "Shigar"}}, {"type": "Feature", "geometry": {"geodesic": false, "type": "Point", "coordinates": [75.64133594212234, 35.53057035937317]}, "id": "7", "properties": {"classification": 1, "latitude": 35.53057035937317, "longitude": 75.64133594212234, "district": "Shigar"}}, {"type": "Feature", "geometry": {"geodesic": false, "type": "Point", "coordinates": [75.74077944407438, 35.688494186321385]}, "id": "8", "properties": {"classification": 1, "latitude": 35.688494186321385, "longitude": 75.74077944407438, "district": "Shigar"}}, {"type": "Feature", "geometry": {"geodesic": false, "type": "Point", "coordinates": [75.71814189891457, 35.46670014267227]}, "id": "9", "properties": {"classification": 1, "latitude": 35.46670014267227, "longitude": 75.71814189891457, "district": "Shigar"}}, {"type": "Feature", "geometry": {"geodesic": false, "type": "Point", "coordinates": [75.80384117701956, 35.69280609968516]}, "id": "10", "properties": {"classification": 1, "latitude": 35.69280609968516, "longitude": 75.80384117701956, "district": "Shigar"}}, {"type": "Feature", "geometry": {"geodesic": false, "type": "Point", "coordinates": [75.7259572418864, 35.42277252527883]}, "id": "11", "properties": {"classification": 1, "latitude": 35.42277252527883, "longitude": 75.7259572418864, "district": "Shigar"}}, {"type": "Feature", "geometry": {"geodesic": false, "type": "Point", "coordinates": [75.63459857749145, 35.52410248932751]}, "id": "12", "properties": {"classification": 1, "latitude": 35.52410248932751, "longitude": 75.63459857749145, "district": "Shigar"}}, {"type": "Feature", "geometry": {"geodesic": false, "type": "Point", "coordinates": [75.6575056172365, 35.50281241709388]}, "id": "13", "properties": {"classification": 1, "latitude": 35.50281241709388, "longitude": 75.6575056172365, "district": "Shigar"}}, {"type": "Feature", "geometry": {"geodesic": false, "type": "Point", "coordinates": [75.73296410110254, 35.43463028702921]}, "id": "14", "properties": {"classification": 1, "latitude": 35.43463028702921, "longitude": 75.73296410110254, "district": "Shigar"}}, {"type": "Feature", "geometry": {"geodesic": false, "type": "Point", "coordinates": [73.88369225721408, 33.08490699835777]}, "id": "0", "properties": {"classification": 1, "latitude": 33.08490699835777, "longitude": 73.88369225721408, "district": "Azad Kashmir"}}, {"type": "Feature", "geometry": {"geodesic": false, "type": "Point", "coordinates": [73.65596933268979, 33.581046529776984]}, "id": "1", "properties": {"classification": 1, "latitude": 33.581046529776984, "longitude": 73.65596933268979, "district": "Azad Kashmir"}}, {"type": "Feature", "geometry": {"geodesic": false, "type": "Point", "coordinates": [73.87021752795229, 33.16225194432047]}, "id": "2", "properties": {"classification": 1, "latitude": 33.16225194432047, "longitude": 73.87021752795229, "district": "Azad Kashmir"}}, {"type": "Feature", "geometry": {"geodesic": false, "type": "Point", "coordinates": [73.5508664444478, 33.36895429119637]}, "id": "3", "properties": {"classification": 1, "latitude": 33.36895429119637, "longitude": 73.5508664444478, "district": "Azad Kashmir"}}, {"type": "Feature", "geometry": {"geodesic": false, "type": "Point", "coordinates": [73.70582583095842, 34.18606187363148]}, "id": "4", "properties": {"classification": 1, "latitude": 34.18606187363148, "longitude": 73.70582583095842, "district": "Azad Kashmir"}}, {"type": "Feature", "geometry": {"geodesic": false, "type": "Point", "coordinates": [74.04269406250324, 33.345777756866084]}, "id": "5", "properties": {"classification": 1, "latitude": 33.345777756866084, "longitude": 74.04269406250324, "district": "Azad Kashmir"}}, {"type": "Feature", "geometry": {"geodesic": false, "type": "Point", "coordinates": [73.65057944098507, 33.23878840652745]}, "id": "6", "properties": {"classification": 1, "latitude": 33.23878840652745, "longitude": 73.65057944098507, "district": "Azad Kashmir"}}, {"type": "Feature", "geometry": {"geodesic": false, "type": "Point", "coordinates": [73.80149640871714, 33.48321999533637]}, "id": "7", "properties": {"classification": 1, "latitude": 33.48321999533637, "longitude": 73.80149640871714, "district": "Azad Kashmir"}}, {"type": "Feature", "geometry": {"geodesic": false, "type": "Point", "coordinates": [74.22298594002604, 32.89787775620409]}, "id": "8", "properties": {"classification": 1, "latitude": 32.89787775620409, "longitude": 74.22298594002604, "district": "Azad Kashmir"}}, {"type": "Feature", "geometry": {"geodesic": false, "type": "Point", "coordinates": [73.67375597531536, 33.27274472426716]}, "id": "9", "properties": {"classification": 1, "latitude": 33.27274472426716, "longitude": 73.67375597531536, "district": "Azad Kashmir"}}, {"type": "Feature", "geometry": {"geodesic": false, "type": "Point", "coordinates": [73.72846337611823, 33.30292811781358]}, "id": "10", "properties": {"classification": 1, "latitude": 33.30292811781358, "longitude": 73.72846337611823, "district": "Azad Kashmir"}}, {"type": "Feature", "geometry": {"geodesic": false, "type": "Point", "coordinates": [74.03595669787235, 32.931834073943804]}, "id": "11", "properties": {"classification": 1, "latitude": 32.931834073943804, "longitude": 74.03595669787235, "district": "Azad Kashmir"}}, {"type": "Feature", "geometry": {"geodesic": false, "type": "Point", "coordinates": [73.69585453130469, 33.319097792927735]}, "id": "12", "properties": {"classification": 1, "latitude": 33.319097792927735, "longitude": 73.69585453130469, "district": "Azad Kashmir"}}, {"type": "Feature", "geometry": {"geodesic": false, "type": "Point", "coordinates": [73.80526933291046, 33.58050754060651]}, "id": "13", "properties": {"classification": 1, "latitude": 33.58050754060651, "longitude": 73.80526933291046, "district": "Azad Kashmir"}}, {"type": "Feature", "geometry": {"geodesic": false, "type": "Point", "coordinates": [73.80311337622857, 33.58239400270316]}, "id": "14", "properties": {"classification": 1, "latitude": 33.58239400270316, "longitude": 73.80311337622857, "district": "Azad Kashmir"}}, {"type": "Feature", "geometry": {"geodesic": false, "type": "Point", "coordinates": [73.72549893568063, 35.510358265480484]}, "id": "0", "properties": {"classification": 1, "latitude": 35.510358265480484, "longitude": 73.72549893568063, "district": "Diamer"}}, {"type": "Feature", "geometry": {"geodesic": false, "type": "Point", "coordinates": [73.62848088499572, 35.673671984133414]}, "id": "1", "properties": {"classification": 1, "latitude": 35.673671984133414, "longitude": 73.62848088499572, "district": "Diamer"}}, {"type": "Feature", "geometry": {"geodesic": false, "type": "Point", "coordinates": [73.79017763613724, 35.4157656660627]}, "id": "2", "properties": {"classification": 1, "latitude": 35.4157656660627, "longitude": 73.79017763613724, "district": "Diamer"}}, {"type": "Feature", "geometry": {"geodesic": false, "type": "Point", "coordinates": [73.99310705881985, 35.452147435069534]}, "id": "3", "properties": {"classification": 1, "latitude": 35.452147435069534, "longitude": 73.99310705881985, "district": "Diamer"}}, {"type": "Feature", "geometry": {"geodesic": false, "type": "Point", "coordinates": [73.63225380918902, 35.68984165924756]}, "id": "4", "properties": {"classification": 1, "latitude": 35.68984165924756, "longitude": 73.63225380918902, "district": "Diamer"}}, {"type": "Feature", "geometry": {"geodesic": false, "type": "Point", "coordinates": [73.5832057946761, 35.61438317538152]}, "id": "5", "properties": {"classification": 1, "latitude": 35.61438317538152, "longitude": 73.5832057946761, "district": "Diamer"}}, {"type": "Feature", "geometry": {"geodesic": false, "type": "Point", "coordinates": [73.99364604799031, 35.6976570022194]}, "id": "6", "properties": {"classification": 1, "latitude": 35.6976570022194, "longitude": 73.99364604799031, "district": "Diamer"}}, {"type": "Feature", "geometry": {"geodesic": false, "type": "Point", "coordinates": [74.1483359399157, 35.535421261907416]}, "id": "7", "properties": {"classification": 1, "latitude": 35.535421261907416, "longitude": 74.1483359399157, "district": "Diamer"}}, {"type": "Feature", "geometry": {"geodesic": false, "type": "Point", "coordinates": [74.00685128266687, 35.71059274231072]}, "id": "8", "properties": {"classification": 1, "latitude": 35.71059274231072, "longitude": 74.00685128266687, "district": "Diamer"}}, {"type": "Feature", "geometry": {"geodesic": false, "type": "Point", "coordinates": [74.237808142214, 35.350817471020854]}, "id": "9", "properties": {"classification": 1, "latitude": 35.350817471020854, "longitude": 74.237808142214, "district": "Diamer"}}, {"type": "Feature", "geometry": {"geodesic": false, "type": "Point", "coordinates": [74.00361734764404, 35.713018193577845]}, "id": "10", "properties": {"classification": 1, "latitude": 35.713018193577845, "longitude": 74.00361734764404, "district": "Diamer"}}, {"type": "Feature", "geometry": {"geodesic": false, "type": "Point", "coordinates": [73.50316590286106, 35.58393028724987]}, "id": "11", "properties": {"classification": 1, "latitude": 35.58393028724987, "longitude": 73.50316590286106, "district": "Diamer"}}, {"type": "Feature", "geometry": {"geodesic": false, "type": "Point", "coordinates": [74.0461974921113, 35.20313443831161]}, "id": "12", "properties": {"classification": 1, "latitude": 35.20313443831161, "longitude": 74.0461974921113, "district": "Diamer"}}, {"type": "Feature", "geometry": {"geodesic": false, "type": "Point", "coordinates": [73.43094135401785, 35.69361458344086]}, "id": "13", "properties": {"classification": 1, "latitude": 35.69361458344086, "longitude": 73.43094135401785, "district": "Diamer"}}, {"type": "Feature", "geometry": {"geodesic": false, "type": "Point", "coordinates": [74.51619604876264, 35.522485521816094]}, "id": "14", "properties": {"classification": 1, "latitude": 35.522485521816094, "longitude": 74.51619604876264, "district": "Diamer"}}, {"type": "Feature", "geometry": {"geodesic": false, "type": "Point", "coordinates": [73.40992077636945, 36.511261155046455]}, "id": "0", "properties": {"classification": 1, "latitude": 36.511261155046455, "longitude": 73.40992077636945, "district": "Ghizer"}}, {"type": "Feature", "geometry": {"geodesic": false, "type": "Point", "coordinates": [73.38970868247677, 36.49104906115377]}, "id": "1", "properties": {"classification": 1, "latitude": 36.49104906115377, "longitude": 73.38970868247677, "district": "Ghizer"}}, {"type": "Feature", "geometry": {"geodesic": false, "type": "Point", "coordinates": [73.41369370056275, 36.515034079239754]}, "id": "2", "properties": {"classification": 1, "latitude": 36.515034079239754, "longitude": 73.41369370056275, "district": "Ghizer"}}, {"type": "Feature", "geometry": {"geodesic": false, "type": "Point", "coordinates": [72.93884424137717, 36.167925053455974]}, "id": "3", "properties": {"classification": 1, "latitude": 36.167925053455974, "longitude": 72.93884424137717, "district": "Ghizer"}}, {"type": "Feature", "geometry": {"geodesic": false, "type": "Point", "coordinates": [72.99705507178811, 36.18598119066677]}, "id": "4", "properties": {"classification": 1, "latitude": 36.18598119066677, "longitude": 72.99705507178811, "district": "Ghizer"}}, {"type": "Feature", "geometry": {"geodesic": false, "type": "Point", "coordinates": [72.92267456626303, 36.169542020967384]}, "id": "5", "properties": {"classification": 1, "latitude": 36.169542020967384, "longitude": 72.92267456626303, "district": "Ghizer"}}, {"type": "Feature", "geometry": {"geodesic": false, "type": "Point", "coordinates": [73.83248828601927, 36.349833898490175]}, "id": "6", "properties": {"classification": 1, "latitude": 36.349833898490175, "longitude": 73.83248828601927, "district": "Ghizer"}}, {"type": "Feature", "geometry": {"geodesic": false, "type": "Point", "coordinates": [72.82646499933382, 36.17843534228017]}, "id": "7", "properties": {"classification": 1, "latitude": 36.17843534228017, "longitude": 72.82646499933382, "district": "Ghizer"}}, {"type": "Feature", "geometry": {"geodesic": false, "type": "Point", "coordinates": [73.33769622752624, 36.35737974687678]}, "id": "8", "properties": {"classification": 1, "latitude": 36.35737974687678, "longitude": 73.33769622752624, "district": "Ghizer"}}, {"type": "Feature", "geometry": {"geodesic": false, "type": "Point", "coordinates": [73.02265705738553, 36.18598119066677]}, "id": "9", "properties": {"classification": 1, "latitude": 36.18598119066677, "longitude": 73.02265705738553, "district": "Ghizer"}}, {"type": "Feature", "geometry": {"geodesic": false, "type": "Point", "coordinates": [73.23852222015944, 36.50236783373367]}, "id": "10", "properties": {"classification": 1, "latitude": 36.50236783373367, "longitude": 73.23852222015944, "district": "Ghizer"}}, {"type": "Feature", "geometry": {"geodesic": false, "type": "Point", "coordinates": [72.89464712939849, 36.15660628087607]}, "id": "11", "properties": {"classification": 1, "latitude": 36.15660628087607, "longitude": 72.89464712939849, "district": "Ghizer"}}, {"type": "Feature", "geometry": {"geodesic": false, "type": "Point", "coordinates": [72.93803575762146, 36.16819454804121]}, "id": "12", "properties": {"classification": 1, "latitude": 36.16819454804121, "longitude": 72.93803575762146, "district": "Ghizer"}}, {"type": "Feature", "geometry": {"geodesic": false, "type": "Point", "coordinates": [72.82377005348147, 36.176279385598285]}, "id": "13", "properties": {"classification": 1, "latitude": 36.176279385598285, "longitude": 72.82377005348147, "district": "Ghizer"}}, {"type": "Feature", "geometry": {"geodesic": false, "type": "Point", "coordinates": [73.9176485749538, 36.509105198364566]}, "id": "14", "properties": {"classification": 1, "latitude": 36.509105198364566, "longitude": 73.9176485749538, "district": "Ghizer"}}, {"type": "Feature", "geometry": {"geodesic": false, "type": "Point", "coordinates": [74.66010615727859, 36.3026723460739]}, "id": "0", "properties": {"classification": 1, "latitude": 36.3026723460739, "longitude": 74.66010615727859, "district": "Hunza"}}, {"type": "Feature", "geometry": {"geodesic": false, "type": "Point", "coordinates": [75.24544839641086, 36.46221314053353]}, "id": "1", "properties": {"classification": 1, "latitude": 36.46221314053353, "longitude": 75.24544839641086, "district": "Hunza"}}, {"type": "Feature", "geometry": {"geodesic": false, "type": "Point", "coordinates": [74.79970435243077, 36.57971277969636]}, "id": "2", "properties": {"classification": 1, "latitude": 36.57971277969636, "longitude": 74.79970435243077, "district": "Hunza"}}, {"type": "Feature", "geometry": {"geodesic": false, "type": "Point", "coordinates": [74.43211373816905, 36.83142072230665]}, "id": "3", "properties": {"classification": 1, "latitude": 36.83142072230665, "longitude": 74.43211373816905, "district": "Hunza"}}, {"type": "Feature", "geometry": {"geodesic": false, "type": "Point", "coordinates": [75.31470850481648, 36.43849761703277]}, "id": "4", "properties": {"classification": 1, "latitude": 36.43849761703277, "longitude": 75.31470850481648, "district": "Hunza"}}, {"type": "Feature", "geometry": {"geodesic": false, "type": "Point", "coordinates": [74.64582294426108, 36.2997079056363]}, "id": "5", "properties": {"classification": 1, "latitude": 36.2997079056363, "longitude": 74.64582294426108, "district": "Hunza"}}, {"type": "Feature", "geometry": {"geodesic": false, "type": "Point", "coordinates": [74.49598395486996, 36.829534260209996]}, "id": "6", "properties": {"classification": 1, "latitude": 36.829534260209996, "longitude": 74.49598395486996, "district": "Hunza"}}, {"type": "Feature", "geometry": {"geodesic": false, "type": "Point", "coordinates": [74.80509424413547, 36.58025176886683]}, "id": "7", "properties": {"classification": 1, "latitude": 36.58025176886683, "longitude": 74.80509424413547, "district": "Hunza"}}, {"type": "Feature", "geometry": {"geodesic": false, "type": "Point", "coordinates": [74.83366067017047, 36.67807830330745]}, "id": "8", "properties": {"classification": 1, "latitude": 36.67807830330745, "longitude": 74.83366067017047, "district": "Hunza"}}, {"type": "Feature", "geometry": {"geodesic": false, "type": "Point", "coordinates": [74.83635561602284, 36.67538335745509]}, "id": "9", "properties": {"classification": 1, "latitude": 36.67538335745509, "longitude": 74.83635561602284, "district": "Hunza"}}, {"type": "Feature", "geometry": {"geodesic": false, "type": "Point", "coordinates": [74.75981915381585, 36.790188050765565]}, "id": "10", "properties": {"classification": 1, "latitude": 36.790188050765565, "longitude": 74.75981915381585, "district": "Hunza"}}, {"type": "Feature", "geometry": {"geodesic": false, "type": "Point", "coordinates": [74.85818467742695, 36.61690303245891]}, "id": "11", "properties": {"classification": 1, "latitude": 36.61690303245891, "longitude": 74.85818467742695, "district": "Hunza"}}, {"type": "Feature", "geometry": {"geodesic": false, "type": "Point", "coordinates": [74.81722150047109, 36.68400718418264]}, "id": "12", "properties": {"classification": 1, "latitude": 36.68400718418264, "longitude": 74.81722150047109, "district": "Hunza"}}, {"type": "Feature", "geometry": {"geodesic": false, "type": "Point", "coordinates": [74.49598395486996, 36.82872577645429]}, "id": "13", "properties": {"classification": 1, "latitude": 36.82872577645429, "longitude": 74.49598395486996, "district": "Hunza"}}, {"type": "Feature", "geometry": {"geodesic": false, "type": "Point", "coordinates": [74.51242312456934, 36.82495285226099]}, "id": "14", "properties": {"classification": 1, "latitude": 36.82495285226099, "longitude": 74.51242312456934, "district": "Hunza"}}, {"type": "Feature", "geometry": {"geodesic": false, "type": "Point", "coordinates": [74.1197695138807, 35.940471623516906]}, "id": "0", "properties": {"classification": 1, "latitude": 35.940471623516906, "longitude": 74.1197695138807, "district": "Gilgit"}}, {"type": "Feature", "geometry": {"geodesic": false, "type": "Point", "coordinates": [74.60890218608377, 36.03910664171323]}, "id": "1", "properties": {"classification": 1, "latitude": 36.03910664171323, "longitude": 74.60890218608377, "district": "Gilgit"}}, {"type": "Feature", "geometry": {"geodesic": false, "type": "Point", "coordinates": [74.44154604865231, 35.86905555842941]}, "id": "2", "properties": {"classification": 1, "latitude": 35.86905555842941, "longitude": 74.44154604865231, "district": "Gilgit"}}, {"type": "Feature", "geometry": {"geodesic": false, "type": "Point", "coordinates": [74.18876012770107, 36.15256386209753]}, "id": "3", "properties": {"classification": 1, "latitude": 36.15256386209753, "longitude": 74.18876012770107, "district": "Gilgit"}}, {"type": "Feature", "geometry": {"geodesic": false, "type": "Point", "coordinates": [74.55527276362184, 36.029135342059504]}, "id": "4", "properties": {"classification": 1, "latitude": 36.029135342059504, "longitude": 74.55527276362184, "district": "Gilgit"}}, {"type": "Feature", "geometry": {"geodesic": false, "type": "Point", "coordinates": [74.29952240223301, 36.03452523376422]}, "id": "5", "properties": {"classification": 1, "latitude": 36.03452523376422, "longitude": 74.29952240223301, "district": "Gilgit"}}, {"type": "Feature", "geometry": {"geodesic": false, "type": "Point", "coordinates": [74.17959731180305, 36.16657758052979]}, "id": "6", "properties": {"classification": 1, "latitude": 36.16657758052979, "longitude": 74.17959731180305, "district": "Gilgit"}}, {"type": "Feature", "geometry": {"geodesic": false, "type": "Point", "coordinates": [74.14941391825664, 36.186520179837245]}, "id": "7", "properties": {"classification": 1, "latitude": 36.186520179837245, "longitude": 74.14941391825664, "district": "Gilgit"}}, {"type": "Feature", "geometry": {"geodesic": false, "type": "Point", "coordinates": [74.44127655406707, 35.86878606384417]}, "id": "8", "properties": {"classification": 1, "latitude": 35.86878606384417, "longitude": 74.44127655406707, "district": "Gilgit"}}, {"type": "Feature", "geometry": {"geodesic": false, "type": "Point", "coordinates": [74.3046427993525, 36.018894547820544]}, "id": "9", "properties": {"classification": 1, "latitude": 36.018894547820544, "longitude": 74.3046427993525, "district": "Gilgit"}}, {"type": "Feature", "geometry": {"geodesic": false, "type": "Point", "coordinates": [74.28523918921552, 36.07171548652677]}, "id": "10", "properties": {"classification": 1, "latitude": 36.07171548652677, "longitude": 74.28523918921552, "district": "Gilgit"}}, {"type": "Feature", "geometry": {"geodesic": false, "type": "Point", "coordinates": [74.56389659034939, 36.06120519770257]}, "id": "11", "properties": {"classification": 1, "latitude": 36.06120519770257, "longitude": 74.56389659034939, "district": "Gilgit"}}, {"type": "Feature", "geometry": {"geodesic": false, "type": "Point", "coordinates": [74.29736644555112, 36.03021332040045]}, "id": "12", "properties": {"classification": 1, "latitude": 36.03021332040045, "longitude": 74.29736644555112, "district": "Gilgit"}}, {"type": "Feature", "geometry": {"geodesic": false, "type": "Point", "coordinates": [74.46364460464164, 35.884686244373086]}, "id": "13", "properties": {"classification": 1, "latitude": 35.884686244373086, "longitude": 74.46364460464164, "district": "Gilgit"}}, {"type": "Feature", "geometry": {"geodesic": false, "type": "Point", "coordinates": [74.16666157171173, 36.02994382581522]}, "id": "14", "properties": {"classification": 1, "latitude": 36.02994382581522, "longitude": 74.16666157171173, "district": "Gilgit"}}, {"type": "Feature", "geometry": {"geodesic": false, "type": "Point", "coordinates": [74.75847168088967, 36.23098678640116]}, "id": "0", "properties": {"classification": 1, "latitude": 36.23098678640116, "longitude": 74.75847168088967, "district": "Nagar"}}, {"type": "Feature", "geometry": {"geodesic": false, "type": "Point", "coordinates": [74.7638615725944, 36.22397992718503]}, "id": "1", "properties": {"classification": 1, "latitude": 36.22397992718503, "longitude": 74.7638615725944, "district": "Nagar"}}, {"type": "Feature", "geometry": {"geodesic": false, "type": "Point", "coordinates": [74.48250922560815, 36.24284454815154]}, "id": "2", "properties": {"classification": 1, "latitude": 36.24284454815154, "longitude": 74.48250922560815, "district": "Nagar"}}, {"type": "Feature", "geometry": {"geodesic": false, "type": "Point", "coordinates": [74.76359207800915, 36.2245189163555]}, "id": "3", "properties": {"classification": 1, "latitude": 36.2245189163555, "longitude": 74.76359207800915, "district": "Nagar"}}, {"type": "Feature", "geometry": {"geodesic": false, "type": "Point", "coordinates": [74.30976319647198, 36.240419096884416]}, "id": "4", "properties": {"classification": 1, "latitude": 36.240419096884416, "longitude": 74.30976319647198, "district": "Nagar"}}, {"type": "Feature", "geometry": {"geodesic": false, "type": "Point", "coordinates": [74.99939984009053, 36.17088949389357]}, "id": "5", "properties": {"classification": 1, "latitude": 36.17088949389357, "longitude": 74.99939984009053, "district": "Nagar"}}, {"type": "Feature", "geometry": {"geodesic": false, "type": "Point", "coordinates": [74.98296067039114, 36.17843534228017]}, "id": "6", "properties": {"classification": 1, "latitude": 36.17843534228017, "longitude": 74.98296067039114, "district": "Nagar"}}, {"type": "Feature", "geometry": {"geodesic": false, "type": "Point", "coordinates": [74.53371319680296, 36.24877342902673]}, "id": "7", "properties": {"classification": 1, "latitude": 36.24877342902673, "longitude": 74.53371319680296, "district": "Nagar"}}, {"type": "Feature", "geometry": {"geodesic": false, "type": "Point", "coordinates": [74.18471770892253, 36.341479566347864]}, "id": "8", "properties": {"classification": 1, "latitude": 36.341479566347864, "longitude": 74.18471770892253, "district": "Nagar"}}, {"type": "Feature", "geometry": {"geodesic": false, "type": "Point", "coordinates": [74.29009009174976, 36.33177776127937]}, "id": "9", "properties": {"classification": 1, "latitude": 36.33177776127937, "longitude": 74.29009009174976, "district": "Nagar"}}, {"type": "Feature", "geometry": {"geodesic": false, "type": "Point", "coordinates": [74.31111066939815, 36.24095808605489]}, "id": "10", "properties": {"classification": 1, "latitude": 36.24095808605489, "longitude": 74.31111066939815, "district": "Nagar"}}, {"type": "Feature", "geometry": {"geodesic": false, "type": "Point", "coordinates": [74.76332258342391, 36.223440938014555]}, "id": "11", "properties": {"classification": 1, "latitude": 36.223440938014555, "longitude": 74.76332258342391, "district": "Nagar"}}, {"type": "Feature", "geometry": {"geodesic": false, "type": "Point", "coordinates": [74.76413106717963, 36.22101548674743]}, "id": "12", "properties": {"classification": 1, "latitude": 36.22101548674743, "longitude": 74.76413106717963, "district": "Nagar"}}, {"type": "Feature", "geometry": {"geodesic": false, "type": "Point", "coordinates": [74.76871247512864, 36.2169730679689]}, "id": "13", "properties": {"classification": 1, "latitude": 36.2169730679689, "longitude": 74.76871247512864, "district": "Nagar"}}, {"type": "Feature", "geometry": {"geodesic": false, "type": "Point", "coordinates": [74.18283124682588, 36.341479566347864]}, "id": "14", "properties": {"classification": 1, "latitude": 36.341479566347864, "longitude": 74.18283124682588, "district": "Nagar"}}, {"type": "Feature", "geometry": {"geodesic": false, "type": "Point", "coordinates": [74.85575922615982, 35.33626476341812]}, "id": "0", "properties": {"classification": 1, "latitude": 35.33626476341812, "longitude": 74.85575922615982, "district": "Astore"}}, {"type": "Feature", "geometry": {"geodesic": false, "type": "Point", "coordinates": [74.84012854021614, 35.384234799590104]}, "id": "1", "properties": {"classification": 1, "latitude": 35.384234799590104, "longitude": 74.84012854021614, "district": "Astore"}}, {"type": "Feature", "geometry": {"geodesic": false, "type": "Point", "coordinates": [74.63046175290265, 35.68526025129855]}, "id": "2", "properties": {"classification": 1, "latitude": 35.68526025129855, "longitude": 74.63046175290265, "district": "Astore"}}, {"type": "Feature", "geometry": {"geodesic": false, "type": "Point", "coordinates": [74.88890706014384, 35.26700465501251]}, "id": "3", "properties": {"classification": 1, "latitude": 35.26700465501251, "longitude": 74.88890706014384, "district": "Astore"}}, {"type": "Feature", "geometry": {"geodesic": false, "type": "Point", "coordinates": [74.78542113941326, 35.19289364407264]}, "id": "4", "properties": {"classification": 1, "latitude": 35.19289364407264, "longitude": 74.78542113941326, "district": "Astore"}}, {"type": "Feature", "geometry": {"geodesic": false, "type": "Point", "coordinates": [74.76979045346958, 35.23143136976137]}, "id": "5", "properties": {"classification": 1, "latitude": 35.23143136976137, "longitude": 74.76979045346958, "district": "Astore"}}, {"type": "Feature", "geometry": {"geodesic": false, "type": "Point", "coordinates": [75.06650399181426, 35.08725176666019]}, "id": "6", "properties": {"classification": 1, "latitude": 35.08725176666019, "longitude": 75.06650399181426, "district": "Astore"}}, {"type": "Feature", "geometry": {"geodesic": false, "type": "Point", "coordinates": [74.69379298043307, 35.21175826503915]}, "id": "7", "properties": {"classification": 1, "latitude": 35.21175826503915, "longitude": 74.69379298043307, "district": "Astore"}}, {"type": "Feature", "geometry": {"geodesic": false, "type": "Point", "coordinates": [74.83878106728996, 35.04682757887481]}, "id": "8", "properties": {"classification": 1, "latitude": 35.04682757887481, "longitude": 74.83878106728996, "district": "Astore"}}, {"type": "Feature", "geometry": {"geodesic": false, "type": "Point", "coordinates": [74.9608621144018, 35.37507198369208]}, "id": "9", "properties": {"classification": 1, "latitude": 35.37507198369208, "longitude": 74.9608621144018, "district": "Astore"}}, {"type": "Feature", "geometry": {"geodesic": false, "type": "Point", "coordinates": [74.79808738491934, 35.40633335557944]}, "id": "10", "properties": {"classification": 1, "latitude": 35.40633335557944, "longitude": 74.79808738491934, "district": "Astore"}}, {"type": "Feature", "geometry": {"geodesic": false, "type": "Point", "coordinates": [74.80482474955024, 35.09129418543873]}, "id": "11", "properties": {"classification": 1, "latitude": 35.09129418543873, "longitude": 74.80482474955024, "district": "Astore"}}, {"type": "Feature", "geometry": {"geodesic": false, "type": "Point", "coordinates": [74.72613233066137, 35.04763606263052]}, "id": "12", "properties": {"classification": 1, "latitude": 35.04763606263052, "longitude": 74.72613233066137, "district": "Astore"}}, {"type": "Feature", "geometry": {"geodesic": false, "type": "Point", "coordinates": [74.73556464114462, 35.05814635145472]}, "id": "13", "properties": {"classification": 1, "latitude": 35.05814635145472, "longitude": 74.73556464114462, "district": "Astore"}}, {"type": "Feature", "geometry": {"geodesic": false, "type": "Point", "coordinates": [74.85306428030746, 35.2917981568542]}, "id": "14", "properties": {"classification": 1, "latitude": 35.2917981568542, "longitude": 74.85306428030746, "district": "Astore"}}, {"type": "Feature", "geometry": {"geodesic": false, "type": "Point", "coordinates": [76.20916103321429, 34.964362235792635]}, "id": "0", "properties": {"classification": 1, "latitude": 34.964362235792635, "longitude": 76.20916103321429, "district": "Kharmang"}}, {"type": "Feature", "geometry": {"geodesic": false, "type": "Point", "coordinates": [76.25201067226679, 34.88755627900042]}, "id": "1", "properties": {"classification": 1, "latitude": 34.88755627900042, "longitude": 76.25201067226679, "district": "Kharmang"}}, {"type": "Feature", "geometry": {"geodesic": false, "type": "Point", "coordinates": [76.07360525684065, 35.0460190951191]}, "id": "2", "properties": {"classification": 1, "latitude": 35.0460190951191, "longitude": 76.07360525684065, "district": "Kharmang"}}, {"type": "Feature", "geometry": {"geodesic": false, "type": "Point", "coordinates": [76.25120218851109, 34.888095268170886]}, "id": "3", "properties": {"classification": 1, "latitude": 34.888095268170886, "longitude": 76.25120218851109, "district": "Kharmang"}}, {"type": "Feature", "geometry": {"geodesic": false, "type": "Point", "coordinates": [76.30483161097303, 34.75604292140532]}, "id": "4", "properties": {"classification": 1, "latitude": 34.75604292140532, "longitude": 76.30483161097303, "district": "Kharmang"}}, {"type": "Feature", "geometry": {"geodesic": false, "type": "Point", "coordinates": [75.99868576214509, 35.090755196268255]}, "id": "5", "properties": {"classification": 1, "latitude": 35.090755196268255, "longitude": 75.99868576214509, "district": "Kharmang"}}, {"type": "Feature", "geometry": {"geodesic": false, "type": "Point", "coordinates": [75.9822465924457, 35.09371963670585]}, "id": "6", "properties": {"classification": 1, "latitude": 35.09371963670585, "longitude": 75.9822465924457, "district": "Kharmang"}}, {"type": "Feature", "geometry": {"geodesic": false, "type": "Point", "coordinates": [76.07333576225543, 35.048983535556694]}, "id": "7", "properties": {"classification": 1, "latitude": 35.048983535556694, "longitude": 76.07333576225543, "district": "Kharmang"}}, {"type": "Feature", "geometry": {"geodesic": false, "type": "Point", "coordinates": [76.00730958887263, 35.09156368002396]}, "id": "8", "properties": {"classification": 1, "latitude": 35.09156368002396, "longitude": 76.00730958887263, "district": "Kharmang"}}, {"type": "Feature", "geometry": {"geodesic": false, "type": "Point", "coordinates": [76.20862204404382, 34.962745268281225]}, "id": "9", "properties": {"classification": 1, "latitude": 34.962745268281225, "longitude": 76.20862204404382, "district": "Kharmang"}}, {"type": "Feature", "geometry": {"geodesic": false, "type": "Point", "coordinates": [76.0175503831116, 35.08994671251254]}, "id": "10", "properties": {"classification": 1, "latitude": 35.08994671251254, "longitude": 76.0175503831116, "district": "Kharmang"}}, {"type": "Feature", "geometry": {"geodesic": false, "type": "Point", "coordinates": [76.09489532907429, 35.03011891459018]}, "id": "11", "properties": {"classification": 1, "latitude": 35.03011891459018, "longitude": 76.09489532907429, "district": "Kharmang"}}, {"type": "Feature", "geometry": {"geodesic": false, "type": "Point", "coordinates": [75.99572132170749, 35.09156368002396]}, "id": "12", "properties": {"classification": 1, "latitude": 35.09156368002396, "longitude": 75.99572132170749, "district": "Kharmang"}}, {"type": "Feature", "geometry": {"geodesic": false, "type": "Point", "coordinates": [76.25174117768155, 34.887825773585654]}, "id": "13", "properties": {"classification": 1, "latitude": 34.887825773585654, "longitude": 76.25174117768155, "district": "Kharmang"}}, {"type": "Feature", "geometry": {"geodesic": false, "type": "Point", "coordinates": [76.12561771179118, 35.02607649581165]}, "id": "14", "properties": {"classification": 1, "latitude": 35.02607649581165, "longitude": 76.12561771179118, "district": "Kharmang"}}, {"type": "Feature", "geometry": {"geodesic": false, "type": "Point", "coordinates": [75.49041897439027, 35.326832452934866]}, "id": "0", "properties": {"classification": 1, "latitude": 35.326832452934866, "longitude": 75.49041897439027, "district": "Skardu"}}, {"type": "Feature", "geometry": {"geodesic": false, "type": "Point", "coordinates": [75.2058326923812, 35.601177940704964]}, "id": "1", "properties": {"classification": 1, "latitude": 35.601177940704964, "longitude": 75.2058326923812, "district": "Skardu"}}, {"type": "Feature", "geometry": {"geodesic": false, "type": "Point", "coordinates": [75.05249027338199, 35.580965846812276]}, "id": "2", "properties": {"classification": 1, "latitude": 35.580965846812276, "longitude": 75.05249027338199, "district": "Skardu"}}, {"type": "Feature", "geometry": {"geodesic": false, "type": "Point", "coordinates": [75.49661734985068, 35.320364582889205]}, "id": "3", "properties": {"classification": 1, "latitude": 35.320364582889205, "longitude": 75.49661734985068, "district": "Skardu"}}, {"type": "Feature", "geometry": {"geodesic": false, "type": "Point", "coordinates": [75.6154644619397, 35.29988299441128]}, "id": "4", "properties": {"classification": 1, "latitude": 35.29988299441128, "longitude": 75.6154644619397, "district": "Skardu"}}, {"type": "Feature", "geometry": {"geodesic": false, "type": "Point", "coordinates": [75.10207727706539, 35.55105194785109]}, "id": "5", "properties": {"classification": 1, "latitude": 35.55105194785109, "longitude": 75.10207727706539, "district": "Skardu"}}, {"type": "Feature", "geometry": {"geodesic": false, "type": "Point", "coordinates": [75.3726498406422, 34.92609400468915]}, "id": "6", "properties": {"classification": 1, "latitude": 34.92609400468915, "longitude": 75.3726498406422, "district": "Skardu"}}, {"type": "Feature", "geometry": {"geodesic": false, "type": "Point", "coordinates": [75.54404839685219, 35.29476259729179]}, "id": "7", "properties": {"classification": 1, "latitude": 35.29476259729179, "longitude": 75.54404839685219, "district": "Skardu"}}, {"type": "Feature", "geometry": {"geodesic": false, "type": "Point", "coordinates": [75.32737475032256, 35.496075052462984]}, "id": "8", "properties": {"classification": 1, "latitude": 35.496075052462984, "longitude": 75.32737475032256, "district": "Skardu"}}, {"type": "Feature", "geometry": {"geodesic": false, "type": "Point", "coordinates": [75.61276951608734, 35.278862416762884]}, "id": "9", "properties": {"classification": 1, "latitude": 35.278862416762884, "longitude": 75.61276951608734, "district": "Skardu"}}, {"type": "Feature", "geometry": {"geodesic": false, "type": "Point", "coordinates": [75.74158792783008, 35.30203895109317]}, "id": "10", "properties": {"classification": 1, "latitude": 35.30203895109317, "longitude": 75.74158792783008, "district": "Skardu"}}, {"type": "Feature", "geometry": {"geodesic": false, "type": "Point", "coordinates": [75.04413594123969, 35.72649292283964]}, "id": "11", "properties": {"classification": 1, "latitude": 35.72649292283964, "longitude": 75.04413594123969, "district": "Skardu"}}, {"type": "Feature", "geometry": {"geodesic": false, "type": "Point", "coordinates": [75.48529857727078, 34.97029111666782]}, "id": "12", "properties": {"classification": 1, "latitude": 34.97029111666782, "longitude": 75.48529857727078, "district": "Skardu"}}, {"type": "Feature", "geometry": {"geodesic": false, "type": "Point", "coordinates": [75.47829171805465, 35.06272775940372]}, "id": "13", "properties": {"classification": 1, "latitude": 35.06272775940372, "longitude": 75.47829171805465, "district": "Skardu"}}, {"type": "Feature", "geometry": {"geodesic": false, "type": "Point", "coordinates": [75.8372585055888, 35.33869021468524]}, "id": "14", "properties": {"classification": 1, "latitude": 35.33869021468524, "longitude": 75.8372585055888, "district": "Skardu"}}, {"type": "Feature", "geometry": {"geodesic": false, "type": "Point", "coordinates": [76.76000796543639, 35.142498156633536]}, "id": "0", "properties": {"classification": 1, "latitude": 35.142498156633536, "longitude": 76.76000796543639, "district": "Ghanche"}}, {"type": "Feature", "geometry": {"geodesic": false, "type": "Point", "coordinates": [76.29000940878505, 35.193971622413585]}, "id": "1", "properties": {"classification": 1, "latitude": 35.193971622413585, "longitude": 76.29000940878505, "district": "Ghanche"}}, {"type": "Feature", "geometry": {"geodesic": false, "type": "Point", "coordinates": [76.23503251339693, 35.241672164000335]}, "id": "2", "properties": {"classification": 1, "latitude": 35.241672164000335, "longitude": 76.23503251339693, "district": "Ghanche"}}, {"type": "Feature", "geometry": {"geodesic": false, "type": "Point", "coordinates": [76.40589208043646, 35.15812884257722]}, "id": "3", "properties": {"classification": 1, "latitude": 35.15812884257722, "longitude": 76.40589208043646, "district": "Ghanche"}}, {"type": "Feature", "geometry": {"geodesic": false, "type": "Point", "coordinates": [76.23314605130028, 35.24194165858557]}, "id": "4", "properties": {"classification": 1, "latitude": 35.24194165858557, "longitude": 76.23314605130028, "district": "Ghanche"}}, {"type": "Feature", "geometry": {"geodesic": false, "type": "Point", "coordinates": [76.37058828977057, 35.14384562955971]}, "id": "5", "properties": {"classification": 1, "latitude": 35.14384562955971, "longitude": 76.37058828977057, "district": "Ghanche"}}, {"type": "Feature", "geometry": {"geodesic": false, "type": "Point", "coordinates": [76.38999189990756, 35.19963100870354]}, "id": "6", "properties": {"classification": 1, "latitude": 35.19963100870354, "longitude": 76.38999189990756, "district": "Ghanche"}}, {"type": "Feature", "geometry": {"geodesic": false, "type": "Point", "coordinates": [76.28812294668839, 35.1918156657317]}, "id": "7", "properties": {"classification": 1, "latitude": 35.1918156657317, "longitude": 76.28812294668839, "district": "Ghanche"}}, {"type": "Feature", "geometry": {"geodesic": false, "type": "Point", "coordinates": [76.29351283839311, 35.19316313865788]}, "id": "8", "properties": {"classification": 1, "latitude": 35.19316313865788, "longitude": 76.29351283839311, "district": "Ghanche"}}, {"type": "Feature", "geometry": {"geodesic": false, "type": "Point", "coordinates": [76.38648847029948, 35.14627108082684]}, "id": "9", "properties": {"classification": 1, "latitude": 35.14627108082684, "longitude": 76.38648847029948, "district": "Ghanche"}}, {"type": "Feature", "geometry": {"geodesic": false, "type": "Point", "coordinates": [76.09543431824476, 35.4052553772385]}, "id": "10", "properties": {"classification": 1, "latitude": 35.4052553772385, "longitude": 76.09543431824476, "district": "Ghanche"}}, {"type": "Feature", "geometry": {"geodesic": false, "type": "Point", "coordinates": [76.4414653656876, 35.15381692921344]}, "id": "11", "properties": {"classification": 1, "latitude": 35.15381692921344, "longitude": 76.4414653656876, "district": "Ghanche"}}, {"type": "Feature", "geometry": {"geodesic": false, "type": "Point", "coordinates": [76.41990579886873, 35.22388552137477]}, "id": "12", "properties": {"classification": 1, "latitude": 35.22388552137477, "longitude": 76.41990579886873, "district": "Ghanche"}}, {"type": "Feature", "geometry": {"geodesic": false, "type": "Point", "coordinates": [76.44119587110237, 35.15327794004297]}, "id": "13", "properties": {"classification": 1, "latitude": 35.15327794004297, "longitude": 76.44119587110237, "district": "Ghanche"}}, {"type": "Feature", "geometry": {"geodesic": false, "type": "Point", "coordinates": [76.15256717031475, 35.326562958349626]}, "id": "14", "properties": {"classification": 1, "latitude": 35.326562958349626, "longitude": 76.15256717031475, "district": "Ghanche"}}]}