{"type": "FeatureCollection", "features": [{"type": "Feature", "geometry": {"type": "Point", "coordinates": [75.3374405418998, 35.716269562450066]}, "id": "0", "properties": {"district": "Shigar"}}, {"type": "Feature", "geometry": {"type": "Point", "coordinates": [75.7737185026308, 35.75297175613068]}, "id": "1", "properties": {"district": "Shigar"}}, {"type": "Feature", "geometry": {"type": "Point", "coordinates": [75.22509796412928, 35.7806749990437]}, "id": "2", "properties": {"district": "Shigar"}}, {"type": "Feature", "geometry": {"type": "Point", "coordinates": [75.32601189073016, 35.768277836416644]}, "id": "3", "properties": {"district": "Shigar"}}, {"type": "Feature", "geometry": {"type": "Point", "coordinates": [75.69649916826653, 35.41022571175295]}, "id": "4", "properties": {"district": "Shigar"}}, {"type": "Feature", "geometry": {"type": "Point", "coordinates": [75.03931333164478, 35.9396780446919]}, "id": "5", "properties": {"district": "Shigar"}}, {"type": "Feature", "geometry": {"type": "Point", "coordinates": [75.93419410965477, 35.86187055788313]}, "id": "6", "properties": {"district": "Shigar"}}, {"type": "Feature", "geometry": {"type": "Point", "coordinates": [75.79236591693012, 35.770698369851246]}, "id": "7", "properties": {"district": "Shigar"}}, {"type": "Feature", "geometry": {"type": "Point", "coordinates": [75.63911441427278, 35.629678974682534]}, "id": "8", "properties": {"district": "Shigar"}}, {"type": "Feature", "geometry": {"type": "Point", "coordinates": [75.77878919240953, 35.745068129464265]}, "id": "9", "properties": {"district": "Shigar"}}, {"type": "Feature", "geometry": {"type": "Point", "coordinates": [75.84537685131332, 35.81191561968525]}, "id": "10", "properties": {"district": "Shigar"}}, {"type": "Feature", "geometry": {"type": "Point", "coordinates": [75.70659932157007, 35.75912393978477]}, "id": "11", "properties": {"district": "Shigar"}}, {"type": "Feature", "geometry": {"type": "Point", "coordinates": [76.66450132402437, 35.671428198193816]}, "id": "12", "properties": {"district": "Shigar"}}, {"type": "Feature", "geometry": {"type": "Point", "coordinates": [76.75289458495821, 35.50673085868706]}, "id": "13", "properties": {"district": "Shigar"}}, {"type": "Feature", "geometry": {"type": "Point", "coordinates": [76.180079172137, 35.539467370832774]}, "id": "14", "properties": {"district": "Shigar"}}, {"type": "Feature", "geometry": {"type": "Point", "coordinates": [76.45826041739019, 35.83158333680118]}, "id": "15", "properties": {"district": "Shigar"}}, {"type": "Feature", "geometry": {"type": "Point", "coordinates": [75.34891646470557, 35.88541635531188]}, "id": "16", "properties": {"district": "Shigar"}}, {"type": "Feature", "geometry": {"type": "Point", "coordinates": [76.02629501040248, 35.77079635573979]}, "id": "17", "properties": {"district": "Shigar"}}, {"type": "Feature", "geometry": {"type": "Point", "coordinates": [75.69255862553926, 35.56966598902309]}, "id": "18", "properties": {"district": "Shigar"}}, {"type": "Feature", "geometry": {"type": "Point", "coordinates": [75.25217216237814, 35.75194286601067]}, "id": "19", "properties": {"district": "Shigar"}}, {"type": "Feature", "geometry": {"type": "Point", "coordinates": [76.58664706332557, 35.686938274166366]}, "id": "20", "properties": {"district": "Shigar"}}, {"type": "Feature", "geometry": {"type": "Point", "coordinates": [75.80031722771942, 35.50907203769225]}, "id": "21", "properties": {"district": "Shigar"}}, {"type": "Feature", "geometry": {"type": "Point", "coordinates": [75.34332294017085, 35.62182621633238]}, "id": "22", "properties": {"district": "Shigar"}}, {"type": "Feature", "geometry": {"type": "Point", "coordinates": [75.66499784212509, 35.568228926014825]}, "id": "23", "properties": {"district": "Shigar"}}, {"type": "Feature", "geometry": {"type": "Point", "coordinates": [76.21713246050847, 35.86309856463396]}, "id": "24", "properties": {"district": "Shigar"}}, {"type": "Feature", "geometry": {"type": "Point", "coordinates": [74.01470417825064, 33.866269157094294]}, "id": "0", "properties": {"district": "Azad Kashmir"}}, {"type": "Feature", "geometry": {"type": "Point", "coordinates": [73.7501309913989, 33.58983139402898]}, "id": "1", "properties": {"district": "Azad Kashmir"}}, {"type": "Feature", "geometry": {"type": "Point", "coordinates": [74.05313054069202, 33.00618985152852]}, "id": "2", "properties": {"district": "Azad Kashmir"}}, {"type": "Feature", "geometry": {"type": "Point", "coordinates": [73.97434582364276, 33.082274078666245]}, "id": "3", "properties": {"district": "Azad Kashmir"}}, {"type": "Feature", "geometry": {"type": "Point", "coordinates": [73.42955690111862, 34.33281293747044]}, "id": "4", "properties": {"district": "Azad Kashmir"}}, {"type": "Feature", "geometry": {"type": "Point", "coordinates": [73.82521904660669, 34.766013782112566]}, "id": "5", "properties": {"district": "Azad Kashmir"}}, {"type": "Feature", "geometry": {"type": "Point", "coordinates": [73.93994166425992, 33.289145819699485]}, "id": "6", "properties": {"district": "Azad Kashmir"}}, {"type": "Feature", "geometry": {"type": "Point", "coordinates": [73.74332394754587, 33.36361713628695]}, "id": "7", "properties": {"district": "Azad Kashmir"}}, {"type": "Feature", "geometry": {"type": "Point", "coordinates": [73.63177376086644, 34.35758659940471]}, "id": "8", "properties": {"district": "Azad Kashmir"}}, {"type": "Feature", "geometry": {"type": "Point", "coordinates": [73.75164606895298, 33.600651180940844]}, "id": "9", "properties": {"district": "Azad Kashmir"}}, {"type": "Feature", "geometry": {"type": "Point", "coordinates": [73.70533931338758, 34.14016881696317]}, "id": "10", "properties": {"district": "Azad Kashmir"}}, {"type": "Feature", "geometry": {"type": "Point", "coordinates": [73.77373352416822, 33.561380562835176]}, "id": "11", "properties": {"district": "Azad Kashmir"}}, {"type": "Feature", "geometry": {"type": "Point", "coordinates": [74.17146483869583, 34.985555596742394]}, "id": "12", "properties": {"district": "Azad Kashmir"}}, {"type": "Feature", "geometry": {"type": "Point", "coordinates": [74.17287586449905, 33.97308909510149]}, "id": "13", "properties": {"district": "Azad Kashmir"}}, {"type": "Feature", "geometry": {"type": "Point", "coordinates": [73.63659728536649, 33.088637331876605]}, "id": "14", "properties": {"district": "Azad Kashmir"}}, {"type": "Feature", "geometry": {"type": "Point", "coordinates": [73.68803187458785, 33.33862654592421]}, "id": "15", "properties": {"district": "Azad Kashmir"}}, {"type": "Feature", "geometry": {"type": "Point", "coordinates": [73.62574353018859, 34.031112313019115]}, "id": "16", "properties": {"district": "Azad Kashmir"}}, {"type": "Feature", "geometry": {"type": "Point", "coordinates": [73.65007071880811, 34.127974893172684]}, "id": "17", "properties": {"district": "Azad Kashmir"}}, {"type": "Feature", "geometry": {"type": "Point", "coordinates": [73.86360899992376, 33.77768146621256]}, "id": "18", "properties": {"district": "Azad Kashmir"}}, {"type": "Feature", "geometry": {"type": "Point", "coordinates": [74.96643386741367, 34.71235079175838]}, "id": "19", "properties": {"district": "Azad Kashmir"}}, {"type": "Feature", "geometry": {"type": "Point", "coordinates": [75.01880341492559, 34.72023908626982]}, "id": "20", "properties": {"district": "Azad Kashmir"}}, {"type": "Feature", "geometry": {"type": "Point", "coordinates": [73.8481741281207, 33.882573715517175]}, "id": "21", "properties": {"district": "Azad Kashmir"}}, {"type": "Feature", "geometry": {"type": "Point", "coordinates": [74.60527286853322, 34.941016188145696]}, "id": "22", "properties": {"district": "Azad Kashmir"}}, {"type": "Feature", "geometry": {"type": "Point", "coordinates": [73.5978381010622, 34.32689942830488]}, "id": "23", "properties": {"district": "Azad Kashmir"}}, {"type": "Feature", "geometry": {"type": "Point", "coordinates": [73.89000101735614, 33.98635789924985]}, "id": "24", "properties": {"district": "Azad Kashmir"}}, {"type": "Feature", "geometry": {"type": "Point", "coordinates": [73.48443856434822, 35.78300442100531]}, "id": "0", "properties": {"district": "Diamer"}}, {"type": "Feature", "geometry": {"type": "Point", "coordinates": [73.92552302160544, 35.611713519531044]}, "id": "1", "properties": {"district": "Diamer"}}, {"type": "Feature", "geometry": {"type": "Point", "coordinates": [74.55269986287685, 35.46890837053368]}, "id": "2", "properties": {"district": "Diamer"}}, {"type": "Feature", "geometry": {"type": "Point", "coordinates": [73.49997849507399, 35.71921988728862]}, "id": "3", "properties": {"district": "Diamer"}}, {"type": "Feature", "geometry": {"type": "Point", "coordinates": [73.88342011788332, 35.29423408890463]}, "id": "4", "properties": {"district": "Diamer"}}, {"type": "Feature", "geometry": {"type": "Point", "coordinates": [74.60381968342631, 35.31379874938368]}, "id": "5", "properties": {"district": "Diamer"}}, {"type": "Feature", "geometry": {"type": "Point", "coordinates": [73.85578167397213, 35.64582846967635]}, "id": "6", "properties": {"district": "Diamer"}}, {"type": "Feature", "geometry": {"type": "Point", "coordinates": [74.1969457567271, 35.464290775545216]}, "id": "7", "properties": {"district": "Diamer"}}, {"type": "Feature", "geometry": {"type": "Point", "coordinates": [74.22748950271269, 35.32060081799108]}, "id": "8", "properties": {"district": "Diamer"}}, {"type": "Feature", "geometry": {"type": "Point", "coordinates": [73.91623922050552, 35.61587614219494]}, "id": "9", "properties": {"district": "Diamer"}}, {"type": "Feature", "geometry": {"type": "Point", "coordinates": [74.19101802624432, 35.50906105256958]}, "id": "10", "properties": {"district": "Diamer"}}, {"type": "Feature", "geometry": {"type": "Point", "coordinates": [73.94469809645625, 35.62927655926853]}, "id": "11", "properties": {"district": "Diamer"}}, {"type": "Feature", "geometry": {"type": "Point", "coordinates": [74.5909095599107, 35.387135740409065]}, "id": "12", "properties": {"district": "Diamer"}}, {"type": "Feature", "geometry": {"type": "Point", "coordinates": [73.88117115409617, 35.20356275638659]}, "id": "13", "properties": {"district": "Diamer"}}, {"type": "Feature", "geometry": {"type": "Point", "coordinates": [74.59737732671253, 35.59819409066374]}, "id": "14", "properties": {"district": "Diamer"}}, {"type": "Feature", "geometry": {"type": "Point", "coordinates": [74.04518303876262, 35.32970143918293]}, "id": "15", "properties": {"district": "Diamer"}}, {"type": "Feature", "geometry": {"type": "Point", "coordinates": [73.95861736630833, 35.38918107632551]}, "id": "16", "properties": {"district": "Diamer"}}, {"type": "Feature", "geometry": {"type": "Point", "coordinates": [74.28464023908695, 35.54372782941485]}, "id": "17", "properties": {"district": "Diamer"}}, {"type": "Feature", "geometry": {"type": "Point", "coordinates": [74.13693942353092, 35.67329975834052]}, "id": "18", "properties": {"district": "Diamer"}}, {"type": "Feature", "geometry": {"type": "Point", "coordinates": [74.25963359710596, 35.24165323710008]}, "id": "19", "properties": {"district": "Diamer"}}, {"type": "Feature", "geometry": {"type": "Point", "coordinates": [73.1917942925535, 35.80941948235076]}, "id": "20", "properties": {"district": "Diamer"}}, {"type": "Feature", "geometry": {"type": "Point", "coordinates": [73.63244797553813, 35.563204636458124]}, "id": "21", "properties": {"district": "Diamer"}}, {"type": "Feature", "geometry": {"type": "Point", "coordinates": [74.65768070365655, 35.53874930883501]}, "id": "22", "properties": {"district": "Diamer"}}, {"type": "Feature", "geometry": {"type": "Point", "coordinates": [74.25110078467219, 35.266455691968105]}, "id": "23", "properties": {"district": "Diamer"}}, {"type": "Feature", "geometry": {"type": "Point", "coordinates": [73.73399708318586, 35.51335067160647]}, "id": "24", "properties": {"district": "Diamer"}}, {"type": "Feature", "geometry": {"type": "Point", "coordinates": [72.83839554933623, 35.97552114912539]}, "id": "0", "properties": {"district": "Ghizer"}}, {"type": "Feature", "geometry": {"type": "Point", "coordinates": [73.41236865161352, 36.3055836119404]}, "id": "1", "properties": {"district": "Ghizer"}}, {"type": "Feature", "geometry": {"type": "Point", "coordinates": [73.65796620462996, 36.027362941581586]}, "id": "2", "properties": {"district": "Ghizer"}}, {"type": "Feature", "geometry": {"type": "Point", "coordinates": [72.8743633770402, 36.05479554902609]}, "id": "3", "properties": {"district": "Ghizer"}}, {"type": "Feature", "geometry": {"type": "Point", "coordinates": [74.02141715400688, 36.15252468945801]}, "id": "4", "properties": {"district": "Ghizer"}}, {"type": "Feature", "geometry": {"type": "Point", "coordinates": [72.73172016653061, 35.92754513606907]}, "id": "5", "properties": {"district": "Ghizer"}}, {"type": "Feature", "geometry": {"type": "Point", "coordinates": [73.32659193694896, 36.29956838969749]}, "id": "6", "properties": {"district": "Ghizer"}}, {"type": "Feature", "geometry": {"type": "Point", "coordinates": [73.71338590684664, 36.3361251359304]}, "id": "7", "properties": {"district": "Ghizer"}}, {"type": "Feature", "geometry": {"type": "Point", "coordinates": [73.14379932601189, 36.087262513241065]}, "id": "8", "properties": {"district": "Ghizer"}}, {"type": "Feature", "geometry": {"type": "Point", "coordinates": [73.40128675427663, 36.304223543312965]}, "id": "9", "properties": {"district": "Ghizer"}}, {"type": "Feature", "geometry": {"type": "Point", "coordinates": [73.69120455822595, 36.372017224797915]}, "id": "10", "properties": {"district": "Ghizer"}}, {"type": "Feature", "geometry": {"type": "Point", "coordinates": [73.41191158898505, 36.346851639962175]}, "id": "11", "properties": {"district": "Ghizer"}}, {"type": "Feature", "geometry": {"type": "Point", "coordinates": [72.73613569597529, 36.104845169269865]}, "id": "12", "properties": {"district": "Ghizer"}}, {"type": "Feature", "geometry": {"type": "Point", "coordinates": [74.15978846642902, 36.6986061128907]}, "id": "13", "properties": {"district": "Ghizer"}}, {"type": "Feature", "geometry": {"type": "Point", "coordinates": [73.81267262459245, 36.85762394991665]}, "id": "14", "properties": {"district": "Ghizer"}}, {"type": "Feature", "geometry": {"type": "Point", "coordinates": [74.06151058564984, 36.69043950984062]}, "id": "15", "properties": {"district": "Ghizer"}}, {"type": "Feature", "geometry": {"type": "Point", "coordinates": [73.55006868228283, 36.06999143715746]}, "id": "16", "properties": {"district": "Ghizer"}}, {"type": "Feature", "geometry": {"type": "Point", "coordinates": [73.23028001909427, 36.05126928277855]}, "id": "17", "properties": {"district": "Ghizer"}}, {"type": "Feature", "geometry": {"type": "Point", "coordinates": [73.12633685268527, 36.400373698058026]}, "id": "18", "properties": {"district": "Ghizer"}}, {"type": "Feature", "geometry": {"type": "Point", "coordinates": [73.65576394422133, 36.00742076192352]}, "id": "19", "properties": {"district": "Ghizer"}}, {"type": "Feature", "geometry": {"type": "Point", "coordinates": [72.77670982218, 35.92740235053317]}, "id": "20", "properties": {"district": "Ghizer"}}, {"type": "Feature", "geometry": {"type": "Point", "coordinates": [73.05147328572923, 36.34573352028227]}, "id": "21", "properties": {"district": "Ghizer"}}, {"type": "Feature", "geometry": {"type": "Point", "coordinates": [73.85398213713817, 36.76978616107376]}, "id": "22", "properties": {"district": "Ghizer"}}, {"type": "Feature", "geometry": {"type": "Point", "coordinates": [73.46610095059388, 36.56282402313299]}, "id": "23", "properties": {"district": "Ghizer"}}, {"type": "Feature", "geometry": {"type": "Point", "coordinates": [73.34805106022249, 36.006681940360636]}, "id": "24", "properties": {"district": "Ghizer"}}, {"type": "Feature", "geometry": {"type": "Point", "coordinates": [74.67460544132321, 36.44683590142732]}, "id": "0", "properties": {"district": "Hunza"}}, {"type": "Feature", "geometry": {"type": "Point", "coordinates": [74.9129051159496, 36.391308218141496]}, "id": "1", "properties": {"district": "Hunza"}}, {"type": "Feature", "geometry": {"type": "Point", "coordinates": [75.25941261823198, 36.85040537757027]}, "id": "2", "properties": {"district": "Hunza"}}, {"type": "Feature", "geometry": {"type": "Point", "coordinates": [74.74533072182379, 36.4129338566]}, "id": "3", "properties": {"district": "Hunza"}}, {"type": "Feature", "geometry": {"type": "Point", "coordinates": [75.4257241890188, 36.81016238983241]}, "id": "4", "properties": {"district": "Hunza"}}, {"type": "Feature", "geometry": {"type": "Point", "coordinates": [75.92454093096744, 36.24202573664016]}, "id": "5", "properties": {"district": "Hunza"}}, {"type": "Feature", "geometry": {"type": "Point", "coordinates": [75.08580826197945, 36.52112548823913]}, "id": "6", "properties": {"district": "Hunza"}}, {"type": "Feature", "geometry": {"type": "Point", "coordinates": [74.93800502329944, 36.71441041759781]}, "id": "7", "properties": {"district": "Hunza"}}, {"type": "Feature", "geometry": {"type": "Point", "coordinates": [75.09218649121908, 36.835945148779686]}, "id": "8", "properties": {"district": "Hunza"}}, {"type": "Feature", "geometry": {"type": "Point", "coordinates": [74.87176338264045, 36.623606435306385]}, "id": "9", "properties": {"district": "Hunza"}}, {"type": "Feature", "geometry": {"type": "Point", "coordinates": [75.63445072588343, 36.36433835360702]}, "id": "10", "properties": {"district": "Hunza"}}, {"type": "Feature", "geometry": {"type": "Point", "coordinates": [74.91909943700573, 36.63502948900219]}, "id": "11", "properties": {"district": "Hunza"}}, {"type": "Feature", "geometry": {"type": "Point", "coordinates": [74.52316972407365, 36.864080469445476]}, "id": "12", "properties": {"district": "Hunza"}}, {"type": "Feature", "geometry": {"type": "Point", "coordinates": [75.61314516791985, 36.685370320217146]}, "id": "13", "properties": {"district": "Hunza"}}, {"type": "Feature", "geometry": {"type": "Point", "coordinates": [74.15871397454777, 36.726136457884934]}, "id": "14", "properties": {"district": "Hunza"}}, {"type": "Feature", "geometry": {"type": "Point", "coordinates": [74.70913208239445, 36.811203242920385]}, "id": "15", "properties": {"district": "Hunza"}}, {"type": "Feature", "geometry": {"type": "Point", "coordinates": [75.59698707131624, 36.54538675177049]}, "id": "16", "properties": {"district": "Hunza"}}, {"type": "Feature", "geometry": {"type": "Point", "coordinates": [74.7311855203499, 36.65460949854436]}, "id": "17", "properties": {"district": "Hunza"}}, {"type": "Feature", "geometry": {"type": "Point", "coordinates": [74.72534217637828, 36.646848451866795]}, "id": "18", "properties": {"district": "Hunza"}}, {"type": "Feature", "geometry": {"type": "Point", "coordinates": [75.2634212735877, 36.860528322920096]}, "id": "19", "properties": {"district": "Hunza"}}, {"type": "Feature", "geometry": {"type": "Point", "coordinates": [74.58744826623118, 36.92858394706626]}, "id": "20", "properties": {"district": "Hunza"}}, {"type": "Feature", "geometry": {"type": "Point", "coordinates": [75.32785771572605, 36.355600849216]}, "id": "21", "properties": {"district": "Hunza"}}, {"type": "Feature", "geometry": {"type": "Point", "coordinates": [75.96814981860278, 36.095458921309444]}, "id": "22", "properties": {"district": "Hunza"}}, {"type": "Feature", "geometry": {"type": "Point", "coordinates": [75.0772743079698, 36.86544994692984]}, "id": "23", "properties": {"district": "Hunza"}}, {"type": "Feature", "geometry": {"type": "Point", "coordinates": [75.43168704119057, 36.67809197904407]}, "id": "24", "properties": {"district": "Hunza"}}, {"type": "Feature", "geometry": {"type": "Point", "coordinates": [74.24651146324152, 35.972234197679676]}, "id": "0", "properties": {"district": "Gilgit"}}, {"type": "Feature", "geometry": {"type": "Point", "coordinates": [74.31251222894092, 35.984385186353016]}, "id": "1", "properties": {"district": "Gilgit"}}, {"type": "Feature", "geometry": {"type": "Point", "coordinates": [74.51091010047938, 35.774764111999474]}, "id": "2", "properties": {"district": "Gilgit"}}, {"type": "Feature", "geometry": {"type": "Point", "coordinates": [74.33930115806486, 35.92742064810533]}, "id": "3", "properties": {"district": "Gilgit"}}, {"type": "Feature", "geometry": {"type": "Point", "coordinates": [74.09656903324806, 36.251194044051154]}, "id": "4", "properties": {"district": "Gilgit"}}, {"type": "Feature", "geometry": {"type": "Point", "coordinates": [74.90557932140841, 35.95518804517816]}, "id": "5", "properties": {"district": "Gilgit"}}, {"type": "Feature", "geometry": {"type": "Point", "coordinates": [74.62882604283594, 35.93540424297316]}, "id": "6", "properties": {"district": "Gilgit"}}, {"type": "Feature", "geometry": {"type": "Point", "coordinates": [74.36090762524125, 35.823213606019664]}, "id": "7", "properties": {"district": "Gilgit"}}, {"type": "Feature", "geometry": {"type": "Point", "coordinates": [74.28854501011864, 35.948726007537665]}, "id": "8", "properties": {"district": "Gilgit"}}, {"type": "Feature", "geometry": {"type": "Point", "coordinates": [74.30717787346468, 35.98742728573596]}, "id": "9", "properties": {"district": "Gilgit"}}, {"type": "Feature", "geometry": {"type": "Point", "coordinates": [74.70183700614567, 36.03577572571841]}, "id": "10", "properties": {"district": "Gilgit"}}, {"type": "Feature", "geometry": {"type": "Point", "coordinates": [74.33794465539387, 35.98062893343299]}, "id": "11", "properties": {"district": "Gilgit"}}, {"type": "Feature", "geometry": {"type": "Point", "coordinates": [74.68579520440512, 36.06440317418879]}, "id": "12", "properties": {"district": "Gilgit"}}, {"type": "Feature", "geometry": {"type": "Point", "coordinates": [74.59601596933035, 35.740057527831716]}, "id": "13", "properties": {"district": "Gilgit"}}, {"type": "Feature", "geometry": {"type": "Point", "coordinates": [73.96406765543492, 35.89510739300162]}, "id": "14", "properties": {"district": "Gilgit"}}, {"type": "Feature", "geometry": {"type": "Point", "coordinates": [74.11751356869284, 35.80317018339751]}, "id": "15", "properties": {"district": "Gilgit"}}, {"type": "Feature", "geometry": {"type": "Point", "coordinates": [74.51504523655542, 35.887112324126456]}, "id": "16", "properties": {"district": "Gilgit"}}, {"type": "Feature", "geometry": {"type": "Point", "coordinates": [74.32217678110673, 35.75436102713337]}, "id": "17", "properties": {"district": "Gilgit"}}, {"type": "Feature", "geometry": {"type": "Point", "coordinates": [74.66076711920198, 35.929904895433374]}, "id": "18", "properties": {"district": "Gilgit"}}, {"type": "Feature", "geometry": {"type": "Point", "coordinates": [74.53321385445877, 35.78547009226575]}, "id": "19", "properties": {"district": "Gilgit"}}, {"type": "Feature", "geometry": {"type": "Point", "coordinates": [74.03156452681125, 35.834344853270714]}, "id": "20", "properties": {"district": "Gilgit"}}, {"type": "Feature", "geometry": {"type": "Point", "coordinates": [74.70332822325652, 35.910681212186475]}, "id": "21", "properties": {"district": "Gilgit"}}, {"type": "Feature", "geometry": {"type": "Point", "coordinates": [74.60892241094069, 35.740410490893126]}, "id": "22", "properties": {"district": "Gilgit"}}, {"type": "Feature", "geometry": {"type": "Point", "coordinates": [74.2414408825052, 35.97621498536053]}, "id": "23", "properties": {"district": "Gilgit"}}, {"type": "Feature", "geometry": {"type": "Point", "coordinates": [74.68310330400337, 35.87191698421032]}, "id": "24", "properties": {"district": "Gilgit"}}, {"type": "Feature", "geometry": {"type": "Point", "coordinates": [74.88367082957805, 36.13316452323003]}, "id": "0", "properties": {"district": "Nagar"}}, {"type": "Feature", "geometry": {"type": "Point", "coordinates": [74.75998198784897, 36.14077047145129]}, "id": "1", "properties": {"district": "Nagar"}}, {"type": "Feature", "geometry": {"type": "Point", "coordinates": [75.05144013893636, 36.17643348573959]}, "id": "2", "properties": {"district": "Nagar"}}, {"type": "Feature", "geometry": {"type": "Point", "coordinates": [74.81109455353486, 36.17344250373105]}, "id": "3", "properties": {"district": "Nagar"}}, {"type": "Feature", "geometry": {"type": "Point", "coordinates": [75.17921658962027, 36.22565752102626]}, "id": "4", "properties": {"district": "Nagar"}}, {"type": "Feature", "geometry": {"type": "Point", "coordinates": [74.4589961846821, 36.519340844339155]}, "id": "5", "properties": {"district": "Nagar"}}, {"type": "Feature", "geometry": {"type": "Point", "coordinates": [74.25484378086757, 36.44934986405557]}, "id": "6", "properties": {"district": "Nagar"}}, {"type": "Feature", "geometry": {"type": "Point", "coordinates": [74.8045442962033, 36.25131710168377]}, "id": "7", "properties": {"district": "Nagar"}}, {"type": "Feature", "geometry": {"type": "Point", "coordinates": [74.85117362006903, 36.15376433077623]}, "id": "8", "properties": {"district": "Nagar"}}, {"type": "Feature", "geometry": {"type": "Point", "coordinates": [74.75493532979758, 36.14292968730023]}, "id": "9", "properties": {"district": "Nagar"}}, {"type": "Feature", "geometry": {"type": "Point", "coordinates": [74.42634203012956, 36.157196874934094]}, "id": "10", "properties": {"district": "Nagar"}}, {"type": "Feature", "geometry": {"type": "Point", "coordinates": [74.77342729914555, 36.14179689596625]}, "id": "11", "properties": {"district": "Nagar"}}, {"type": "Feature", "geometry": {"type": "Point", "coordinates": [74.83510877801214, 36.09589562782619]}, "id": "12", "properties": {"district": "Nagar"}}, {"type": "Feature", "geometry": {"type": "Point", "coordinates": [74.28007169172683, 36.17588472663211]}, "id": "13", "properties": {"district": "Nagar"}}, {"type": "Feature", "geometry": {"type": "Point", "coordinates": [74.24436162947767, 36.18851225975459]}, "id": "14", "properties": {"district": "Nagar"}}, {"type": "Feature", "geometry": {"type": "Point", "coordinates": [75.04124849518891, 36.25083825470686]}, "id": "15", "properties": {"district": "Nagar"}}, {"type": "Feature", "geometry": {"type": "Point", "coordinates": [74.18391498423824, 36.37520252891507]}, "id": "16", "properties": {"district": "Nagar"}}, {"type": "Feature", "geometry": {"type": "Point", "coordinates": [74.84469953199284, 36.298479322580064]}, "id": "17", "properties": {"district": "Nagar"}}, {"type": "Feature", "geometry": {"type": "Point", "coordinates": [74.67283343633821, 36.19935935551494]}, "id": "18", "properties": {"district": "Nagar"}}, {"type": "Feature", "geometry": {"type": "Point", "coordinates": [75.0693966655811, 36.17415342275455]}, "id": "19", "properties": {"district": "Nagar"}}, {"type": "Feature", "geometry": {"type": "Point", "coordinates": [74.15422201594188, 36.31822747540246]}, "id": "20", "properties": {"district": "Nagar"}}, {"type": "Feature", "geometry": {"type": "Point", "coordinates": [74.3748630513496, 36.36523653820056]}, "id": "21", "properties": {"district": "Nagar"}}, {"type": "Feature", "geometry": {"type": "Point", "coordinates": [75.17705724918783, 36.30902213053577]}, "id": "22", "properties": {"district": "Nagar"}}, {"type": "Feature", "geometry": {"type": "Point", "coordinates": [74.8874594372052, 36.129842103675756]}, "id": "23", "properties": {"district": "Nagar"}}, {"type": "Feature", "geometry": {"type": "Point", "coordinates": [74.15759734764426, 36.46337587127063]}, "id": "24", "properties": {"district": "Nagar"}}, {"type": "Feature", "geometry": {"type": "Point", "coordinates": [75.05464928717366, 35.10159961130384]}, "id": "0", "properties": {"district": "Astore"}}, {"type": "Feature", "geometry": {"type": "Point", "coordinates": [74.89798995594401, 35.2216994438568]}, "id": "1", "properties": {"district": "Astore"}}, {"type": "Feature", "geometry": {"type": "Point", "coordinates": [74.69598878727993, 35.62853966959595]}, "id": "2", "properties": {"district": "Astore"}}, {"type": "Feature", "geometry": {"type": "Point", "coordinates": [75.03101526355354, 35.20920815445315]}, "id": "3", "properties": {"district": "Astore"}}, {"type": "Feature", "geometry": {"type": "Point", "coordinates": [74.47582924372725, 35.21413283292624]}, "id": "4", "properties": {"district": "Astore"}}, {"type": "Feature", "geometry": {"type": "Point", "coordinates": [74.71768306686813, 34.916545968360374]}, "id": "5", "properties": {"district": "Astore"}}, {"type": "Feature", "geometry": {"type": "Point", "coordinates": [74.89029812965123, 35.27505181745065]}, "id": "6", "properties": {"district": "Astore"}}, {"type": "Feature", "geometry": {"type": "Point", "coordinates": [74.78056353671218, 35.0570553674095]}, "id": "7", "properties": {"district": "Astore"}}, {"type": "Feature", "geometry": {"type": "Point", "coordinates": [74.81157357617042, 35.157793371389175]}, "id": "8", "properties": {"district": "Astore"}}, {"type": "Feature", "geometry": {"type": "Point", "coordinates": [74.89666821552734, 35.22873772550888]}, "id": "9", "properties": {"district": "Astore"}}, {"type": "Feature", "geometry": {"type": "Point", "coordinates": [74.76829632597902, 35.02703340040337]}, "id": "10", "properties": {"district": "Astore"}}, {"type": "Feature", "geometry": {"type": "Point", "coordinates": [74.92108742965274, 35.21171167238027]}, "id": "11", "properties": {"district": "Astore"}}, {"type": "Feature", "geometry": {"type": "Point", "coordinates": [74.84766225991876, 34.94274031159763]}, "id": "12", "properties": {"district": "Astore"}}, {"type": "Feature", "geometry": {"type": "Point", "coordinates": [74.72704660643663, 34.85550285212705]}, "id": "13", "properties": {"district": "Astore"}}, {"type": "Feature", "geometry": {"type": "Point", "coordinates": [75.17225466978297, 34.75228221091107]}, "id": "14", "properties": {"district": "Astore"}}, {"type": "Feature", "geometry": {"type": "Point", "coordinates": [74.57118219489537, 35.18957449835863]}, "id": "15", "properties": {"district": "Astore"}}, {"type": "Feature", "geometry": {"type": "Point", "coordinates": [74.98142718539883, 35.01291280453938]}, "id": "16", "properties": {"district": "Astore"}}, {"type": "Feature", "geometry": {"type": "Point", "coordinates": [74.68753463385794, 35.04092784568418]}, "id": "17", "properties": {"district": "Astore"}}, {"type": "Feature", "geometry": {"type": "Point", "coordinates": [74.93693352695811, 35.37076230354355]}, "id": "18", "properties": {"district": "Astore"}}, {"type": "Feature", "geometry": {"type": "Point", "coordinates": [75.10682757586119, 35.333923228083684]}, "id": "19", "properties": {"district": "Astore"}}, {"type": "Feature", "geometry": {"type": "Point", "coordinates": [74.76773023681808, 34.88500758567496]}, "id": "20", "properties": {"district": "Astore"}}, {"type": "Feature", "geometry": {"type": "Point", "coordinates": [74.74571976313375, 35.69806808346811]}, "id": "21", "properties": {"district": "Astore"}}, {"type": "Feature", "geometry": {"type": "Point", "coordinates": [74.6528998757633, 35.80449312690455]}, "id": "22", "properties": {"district": "Astore"}}, {"type": "Feature", "geometry": {"type": "Point", "coordinates": [75.05538583862734, 35.09465248182648]}, "id": "23", "properties": {"district": "Astore"}}, {"type": "Feature", "geometry": {"type": "Point", "coordinates": [74.72701763707272, 35.3349354960242]}, "id": "24", "properties": {"district": "Astore"}}, {"type": "Feature", "geometry": {"type": "Point", "coordinates": [76.36428759381499, 34.91018801809858]}, "id": "0", "properties": {"district": "Kharmang"}}, {"type": "Feature", "geometry": {"type": "Point", "coordinates": [76.11700962714498, 34.973559436995394]}, "id": "1", "properties": {"district": "Kharmang"}}, {"type": "Feature", "geometry": {"type": "Point", "coordinates": [75.93226801207, 35.04199726617827]}, "id": "2", "properties": {"district": "Kharmang"}}, {"type": "Feature", "geometry": {"type": "Point", "coordinates": [76.31054475985785, 34.876771832961445]}, "id": "3", "properties": {"district": "Kharmang"}}, {"type": "Feature", "geometry": {"type": "Point", "coordinates": [76.42637620927236, 34.85855830559589]}, "id": "4", "properties": {"district": "Kharmang"}}, {"type": "Feature", "geometry": {"type": "Point", "coordinates": [75.87187548419611, 34.87771130781893]}, "id": "5", "properties": {"district": "Kharmang"}}, {"type": "Feature", "geometry": {"type": "Point", "coordinates": [76.14069694579277, 34.99728291321037]}, "id": "6", "properties": {"district": "Kharmang"}}, {"type": "Feature", "geometry": {"type": "Point", "coordinates": [76.0465755742442, 34.90891884001978]}, "id": "7", "properties": {"district": "Kharmang"}}, {"type": "Feature", "geometry": {"type": "Point", "coordinates": [76.33947916896611, 34.89668429192002]}, "id": "8", "properties": {"district": "Kharmang"}}, {"type": "Feature", "geometry": {"type": "Point", "coordinates": [76.11990465995027, 34.97691770735208]}, "id": "9", "properties": {"district": "Kharmang"}}, {"type": "Feature", "geometry": {"type": "Point", "coordinates": [76.06886523442094, 34.89944535590071]}, "id": "10", "properties": {"district": "Kharmang"}}, {"type": "Feature", "geometry": {"type": "Point", "coordinates": [76.12870275195966, 34.953034372607696]}, "id": "11", "properties": {"district": "Kharmang"}}, {"type": "Feature", "geometry": {"type": "Point", "coordinates": [75.83130591717276, 34.97665080944912]}, "id": "12", "properties": {"district": "Kharmang"}}, {"type": "Feature", "geometry": {"type": "Point", "coordinates": [76.02806672212138, 34.71544333069335]}, "id": "13", "properties": {"district": "Kharmang"}}, {"type": "Feature", "geometry": {"type": "Point", "coordinates": [75.76812439394052, 35.053669528946166]}, "id": "14", "properties": {"district": "Kharmang"}}, {"type": "Feature", "geometry": {"type": "Point", "coordinates": [75.89177936786639, 34.94000522346568]}, "id": "15", "properties": {"district": "Kharmang"}}, {"type": "Feature", "geometry": {"type": "Point", "coordinates": [76.01114885348994, 35.06415758201242]}, "id": "16", "properties": {"district": "Kharmang"}}, {"type": "Feature", "geometry": {"type": "Point", "coordinates": [76.085351739639, 34.8370458795285]}, "id": "17", "properties": {"district": "Kharmang"}}, {"type": "Feature", "geometry": {"type": "Point", "coordinates": [76.22813570971086, 34.9949894629312]}, "id": "18", "properties": {"district": "Kharmang"}}, {"type": "Feature", "geometry": {"type": "Point", "coordinates": [75.91622145067362, 35.05115135941947]}, "id": "19", "properties": {"district": "Kharmang"}}, {"type": "Feature", "geometry": {"type": "Point", "coordinates": [75.88953264682195, 34.87674300874454]}, "id": "20", "properties": {"district": "Kharmang"}}, {"type": "Feature", "geometry": {"type": "Point", "coordinates": [76.23512964075334, 35.04033611345711]}, "id": "21", "properties": {"district": "Kharmang"}}, {"type": "Feature", "geometry": {"type": "Point", "coordinates": [76.46441548355945, 34.97406528961214]}, "id": "22", "properties": {"district": "Kharmang"}}, {"type": "Feature", "geometry": {"type": "Point", "coordinates": [76.3674448493655, 34.91123699619707]}, "id": "23", "properties": {"district": "Kharmang"}}, {"type": "Feature", "geometry": {"type": "Point", "coordinates": [76.05223239163803, 35.138595943707436]}, "id": "24", "properties": {"district": "Kharmang"}}, {"type": "Feature", "geometry": {"type": "Point", "coordinates": [75.42065335240363, 35.0724590814867]}, "id": "0", "properties": {"district": "Skardu"}}, {"type": "Feature", "geometry": {"type": "Point", "coordinates": [75.45233371253956, 35.250300437542535]}, "id": "1", "properties": {"district": "Skardu"}}, {"type": "Feature", "geometry": {"type": "Point", "coordinates": [75.84765773938986, 35.23477853914054]}, "id": "2", "properties": {"district": "Skardu"}}, {"type": "Feature", "geometry": {"type": "Point", "coordinates": [75.80619399856666, 35.22637190631266]}, "id": "3", "properties": {"district": "Skardu"}}, {"type": "Feature", "geometry": {"type": "Point", "coordinates": [75.72310501572451, 34.678911086000326]}, "id": "4", "properties": {"district": "Skardu"}}, {"type": "Feature", "geometry": {"type": "Point", "coordinates": [75.83659382883687, 34.78715792814714]}, "id": "5", "properties": {"district": "Skardu"}}, {"type": "Feature", "geometry": {"type": "Point", "coordinates": [75.44712902503336, 35.285380907725546]}, "id": "6", "properties": {"district": "Skardu"}}, {"type": "Feature", "geometry": {"type": "Point", "coordinates": [75.15691607852362, 35.577642190517786]}, "id": "7", "properties": {"district": "Skardu"}}, {"type": "Feature", "geometry": {"type": "Point", "coordinates": [75.45467541035894, 35.04057616435357]}, "id": "8", "properties": {"district": "Skardu"}}, {"type": "Feature", "geometry": {"type": "Point", "coordinates": [75.45114970363532, 35.255043181648816]}, "id": "9", "properties": {"district": "Skardu"}}, {"type": "Feature", "geometry": {"type": "Point", "coordinates": [75.48976589848105, 35.04347046745337]}, "id": "10", "properties": {"district": "Skardu"}}, {"type": "Feature", "geometry": {"type": "Point", "coordinates": [75.48834598538213, 35.23563697971554]}, "id": "11", "properties": {"district": "Skardu"}}, {"type": "Feature", "geometry": {"type": "Point", "coordinates": [74.95612602289513, 35.74716623461577]}, "id": "12", "properties": {"district": "Skardu"}}, {"type": "Feature", "geometry": {"type": "Point", "coordinates": [75.43642889019135, 35.54653391430913]}, "id": "13", "properties": {"district": "Skardu"}}, {"type": "Feature", "geometry": {"type": "Point", "coordinates": [75.82590729155308, 34.61579751961554]}, "id": "14", "properties": {"district": "Skardu"}}, {"type": "Feature", "geometry": {"type": "Point", "coordinates": [75.0106375487962, 35.662901497012705]}, "id": "15", "properties": {"district": "Skardu"}}, {"type": "Feature", "geometry": {"type": "Point", "coordinates": [75.40937798648062, 35.49146862249505]}, "id": "16", "properties": {"district": "Skardu"}}, {"type": "Feature", "geometry": {"type": "Point", "coordinates": [75.3834198260532, 34.86626265609389]}, "id": "17", "properties": {"district": "Skardu"}}, {"type": "Feature", "geometry": {"type": "Point", "coordinates": [75.72977666498765, 35.257577313182125]}, "id": "18", "properties": {"district": "Skardu"}}, {"type": "Feature", "geometry": {"type": "Point", "coordinates": [75.39022007285226, 34.8182619551649]}, "id": "19", "properties": {"district": "Skardu"}}, {"type": "Feature", "geometry": {"type": "Point", "coordinates": [74.94672106237641, 35.805858319644074]}, "id": "20", "properties": {"district": "Skardu"}}, {"type": "Feature", "geometry": {"type": "Point", "coordinates": [75.28222881876549, 35.255546754615004]}, "id": "21", "properties": {"district": "Skardu"}}, {"type": "Feature", "geometry": {"type": "Point", "coordinates": [75.4075611456078, 34.67349162244469]}, "id": "22", "properties": {"district": "Skardu"}}, {"type": "Feature", "geometry": {"type": "Point", "coordinates": [75.41719436908733, 35.07727509843865]}, "id": "23", "properties": {"district": "Skardu"}}, {"type": "Feature", "geometry": {"type": "Point", "coordinates": [75.1910573729212, 35.38223551422362]}, "id": "24", "properties": {"district": "Skardu"}}, {"type": "Feature", "geometry": {"type": "Point", "coordinates": [77.38995801417929, 35.22405323285133]}, "id": "0", "properties": {"district": "Ghanche"}}, {"type": "Feature", "geometry": {"type": "Point", "coordinates": [77.04180836419035, 35.2164847563813]}, "id": "1", "properties": {"district": "Ghanche"}}, {"type": "Feature", "geometry": {"type": "Point", "coordinates": [76.61717739176392, 35.02693782293944]}, "id": "2", "properties": {"district": "Ghanche"}}, {"type": "Feature", "geometry": {"type": "Point", "coordinates": [77.30956642231912, 35.20351066626897]}, "id": "3", "properties": {"district": "Ghanche"}}, {"type": "Feature", "geometry": {"type": "Point", "coordinates": [77.60601152907013, 35.38024657272335]}, "id": "4", "properties": {"district": "Ghanche"}}, {"type": "Feature", "geometry": {"type": "Point", "coordinates": [76.08403098648947, 35.36520470148807]}, "id": "5", "properties": {"district": "Ghanche"}}, {"type": "Feature", "geometry": {"type": "Point", "coordinates": [76.89466613343616, 35.3434004012865]}, "id": "6", "properties": {"district": "Ghanche"}}, {"type": "Feature", "geometry": {"type": "Point", "coordinates": [76.37572176585945, 35.3436856963921]}, "id": "7", "properties": {"district": "Ghanche"}}, {"type": "Feature", "geometry": {"type": "Point", "coordinates": [76.60230311944879, 35.33968869352148]}, "id": "8", "properties": {"district": "Ghanche"}}, {"type": "Feature", "geometry": {"type": "Point", "coordinates": [77.02964797566318, 35.21266623807917]}, "id": "9", "properties": {"district": "Ghanche"}}, {"type": "Feature", "geometry": {"type": "Point", "coordinates": [77.15725481097216, 35.2209414650635]}, "id": "10", "properties": {"district": "Ghanche"}}, {"type": "Feature", "geometry": {"type": "Point", "coordinates": [77.03704161471057, 35.23329944750459]}, "id": "11", "properties": {"district": "Ghanche"}}, {"type": "Feature", "geometry": {"type": "Point", "coordinates": [76.23910264704351, 35.28716169590114]}, "id": "12", "properties": {"district": "Ghanche"}}, {"type": "Feature", "geometry": {"type": "Point", "coordinates": [77.03281891616611, 35.613530824948796]}, "id": "13", "properties": {"district": "Ghanche"}}, {"type": "Feature", "geometry": {"type": "Point", "coordinates": [76.53196930093213, 34.880826048493816]}, "id": "14", "properties": {"district": "Ghanche"}}, {"type": "Feature", "geometry": {"type": "Point", "coordinates": [76.52164637793831, 35.50867169086949]}, "id": "15", "properties": {"district": "Ghanche"}}, {"type": "Feature", "geometry": {"type": "Point", "coordinates": [76.47516936770013, 35.18384814355124]}, "id": "16", "properties": {"district": "Ghanche"}}, {"type": "Feature", "geometry": {"type": "Point", "coordinates": [76.25787409047673, 35.41054617618991]}, "id": "17", "properties": {"district": "Ghanche"}}, {"type": "Feature", "geometry": {"type": "Point", "coordinates": [76.71506044774489, 35.171089511250344]}, "id": "18", "properties": {"district": "Ghanche"}}, {"type": "Feature", "geometry": {"type": "Point", "coordinates": [76.59726493907871, 35.01730699860553]}, "id": "19", "properties": {"district": "Ghanche"}}, {"type": "Feature", "geometry": {"type": "Point", "coordinates": [76.07424186995016, 35.31582286587765]}, "id": "20", "properties": {"district": "Ghanche"}}, {"type": "Feature", "geometry": {"type": "Point", "coordinates": [76.63766454339587, 35.126431628221404]}, "id": "21", "properties": {"district": "Ghanche"}}, {"type": "Feature", "geometry": {"type": "Point", "coordinates": [75.9791105000663, 35.222463207893824]}, "id": "22", "properties": {"district": "Ghanche"}}, {"type": "Feature", "geometry": {"type": "Point", "coordinates": [76.65466264070979, 35.36451344642465]}, "id": "23", "properties": {"district": "Ghanche"}}, {"type": "Feature", "geometry": {"type": "Point", "coordinates": [76.86263166624875, 35.460247137977774]}, "id": "24", "properties": {"district": "Ghanche"}}]}